{"type": "FeatureCollection", "features": [ {"type": "Feature", "properties": {"norad_id": 66610, "name": "STARLINK-35680", "group": "last-30-days", "lat": -41.874836401153935, "lon": 82.45374931349473, "alt_km": 416.9845912777437, "timestamp": "2025-12-18T21:31:49.698860+00:00", "meta": {"OBJECT_NAME": "STARLINK-35680", "OBJECT_ID": "2025-270Y", "EPOCH": "2025-12-17T22:40:42.721824", "MEAN_MOTION": 15.50607868, "ECCENTRICITY": 0.00015535, "INCLINATION": 42.9988, "RA_OF_ASC_NODE": 162.192, "ARG_OF_PERICENTER": 273.7525, "MEAN_ANOMALY": 86.3157, "EPHEMERIS_TYPE": 0, "CLASSIFICATION_TYPE": "U", "NORAD_CAT_ID": 66610, "ELEMENT_SET_NO": 999, "REV_AT_EPOCH": 526, "BSTAR": 0.00073599094, "MEAN_MOTION_DOT": 0.00043118, "MEAN_MOTION_DDOT": 0}, "tle": {"line1": "1 66610U 25270Y   25351.94493891  .00043118  00000+0  73599-3 0  9990", "line2": "2 66610  42.9988 162.1920 0001553 273.7525  86.3157 15.50607868  5266"}}, "geometry": {"type": "Point", "coordinates": [82.45374931349473, -41.874836401153935]}}, {"type": "Feature", "properties": {"norad_id": 66611, "name": "STARLINK-35583", "group": "last-30-days", "lat": -41.50078203113455, "lon": 84.90134104797315, "alt_km": 417.1868582312418, "timestamp": "2025-12-18T21:31:49.698870+00:00", "meta": {"OBJECT_NAME": "STARLINK-35583", "OBJECT_ID": "2025-270Z", "EPOCH": "2025-12-17T22:40:12.877536", "MEAN_MOTION": 15.50580793, "ECCENTRICITY": 0.00013729, "INCLINATION": 42.9985, "RA_OF_ASC_NODE": 162.1895, "ARG_OF_PERICENTER": 256.2335, "MEAN_ANOMALY": 103.8372, "EPHEMERIS_TYPE": 0, "CLASSIFICATION_TYPE": "U", "NORAD_CAT_ID": 66611, "ELEMENT_SET_NO": 999, "REV_AT_EPOCH": 526, "BSTAR": 0.0008749784, "MEAN_MOTION_DOT": 0.0005133, "MEAN_MOTION_DDOT": 0}, "tle": {"line1": "1 66611U 25270Z   25351.94459349  .00051330  00000+0  87498-3 0  9999", "line2": "2 66611  42.9985 162.1895 0001372 256.2335 103.8372 15.50580793  5260"}}, "geometry": {"type": "Point", "coordinates": [84.90134104797315, -41.50078203113455]}}, {"type": "Feature", "properties": {"norad_id": 66612, "name": "STARLINK-36039", "group": "last-30-days", "lat": 38.88389407265131, "lon": -142.9246515366902, "alt_km": 438.5402247133097, "timestamp": "2025-12-18T21:31:49.698880+00:00", "meta": {"OBJECT_NAME": "STARLINK-36039", "OBJECT_ID": "2025-270AA", "EPOCH": "2025-12-18T04:07:36.725376", "MEAN_MOTION": 15.40728192, "ECCENTRICITY": 0.00017448, "INCLINATION": 42.9985, "RA_OF_ASC_NODE": 161.321, "ARG_OF_PERICENTER": 277.5433, "MEAN_ANOMALY": 82.5225, "EPHEMERIS_TYPE": 0, "CLASSIFICATION_TYPE": "U", "NORAD_CAT_ID": 66612, "ELEMENT_SET_NO": 999, "REV_AT_EPOCH": 518, "BSTAR": 0.001096228, "MEAN_MOTION_DOT": 0.00045807, "MEAN_MOTION_DDOT": 0}, "tle": {"line1": "1 66612U 25270AA  25352.17195284  .00045807  00000+0  10962-2 0  9994", "line2": "2 66612  42.9985 161.3210 0001744 277.5433  82.5225 15.40728192  5188"}}, "geometry": {"type": "Point", "coordinates": [-142.9246515366902, 38.88389407265131]}}, {"type": "Feature", "properties": {"norad_id": 66613, "name": "STARLINK-36037", "group": "last-30-days", "lat": 42.94699069914793, "lon": -110.24542985976875, "alt_km": 437.80380351929216, "timestamp": "2025-12-18T21:31:49.698891+00:00", "meta": {"OBJECT_NAME": "STARLINK-36037", "OBJECT_ID": "2025-270AB", "EPOCH": "2025-12-18T04:01:09.728544", "MEAN_MOTION": 15.40726465, "ECCENTRICITY": 0.00013054, "INCLINATION": 42.9984, "RA_OF_ASC_NODE": 161.2864, "ARG_OF_PERICENTER": 273.1571, "MEAN_ANOMALY": 86.9136, "EPHEMERIS_TYPE": 0, "CLASSIFICATION_TYPE": "U", "NORAD_CAT_ID": 66613, "ELEMENT_SET_NO": 999, "REV_AT_EPOCH": 518, "BSTAR": 0.0012389317, "MEAN_MOTION_DOT": 0.00051848, "MEAN_MOTION_DDOT": 0}, "tle": {"line1": "1 66613U 25270AB  25352.16747371  .00051848  00000+0  12389-2 0  9991", "line2": "2 66613  42.9984 161.2864 0001305 273.1571  86.9136 15.40726465  5180"}}, "geometry": {"type": "Point", "coordinates": [-110.24542985976875, 42.94699069914793]}}, {"type": "Feature", "properties": {"norad_id": 66614, "name": "STARLINK-36040", "group": "last-30-days", "lat": -15.948883380496161, "lon": -5.331787736140118, "alt_km": 445.33468851762973, "timestamp": "2025-12-18T21:31:49.698901+00:00", "meta": {"OBJECT_NAME": "STARLINK-36040", "OBJECT_ID": "2025-270AC", "EPOCH": "2025-12-18T06:00:02.999808", "MEAN_MOTION": 15.40692497, "ECCENTRICITY": 0.00020167, "INCLINATION": 42.9995, "RA_OF_ASC_NODE": 160.5384, "ARG_OF_PERICENTER": 278.7993, "MEAN_ANOMALY": 291.6634, "EPHEMERIS_TYPE": 0, "CLASSIFICATION_TYPE": "U", "NORAD_CAT_ID": 66614, "ELEMENT_SET_NO": 999, "REV_AT_EPOCH": 512, "BSTAR": 0.00038333451, "MEAN_MOTION_DOT": 0.00015738, "MEAN_MOTION_DDOT": 0}, "tle": {"line1": "1 66614U 25270AC  25352.25003472  .00015738  00000+0  38333-3 0  9995", "line2": "2 66614  42.9995 160.5384 0002016 278.7993 291.6634 15.40692497  5120"}}, "geometry": {"type": "Point", "coordinates": [-5.331787736140118, -15.948883380496161]}}, {"type": "Feature", "properties": {"norad_id": 66615, "name": "STARLINK-35988", "group": "last-30-days", "lat": 31.92802150398315, "lon": -64.97762320398036, "alt_km": 439.3806057038919, "timestamp": "2025-12-18T21:31:49.698912+00:00", "meta": {"OBJECT_NAME": "STARLINK-35988", "OBJECT_ID": "2025-270AD", "EPOCH": "2025-12-18T06:00:02.999808", "MEAN_MOTION": 15.40706812, "ECCENTRICITY": 0.00015787, "INCLINATION": 42.9989, "RA_OF_ASC_NODE": 160.7205, "ARG_OF_PERICENTER": 245.2808, "MEAN_ANOMALY": 250.5107, "EPHEMERIS_TYPE": 0, "CLASSIFICATION_TYPE": "U", "NORAD_CAT_ID": 66615, "ELEMENT_SET_NO": 999, "REV_AT_EPOCH": 512, "BSTAR": 0.00065072476, "MEAN_MOTION_DOT": 0.00026981, "MEAN_MOTION_DDOT": 0}, "tle": {"line1": "1 66615U 25270AD  25352.25003472  .00026981  00000+0  65072-3 0  9998", "line2": "2 66615  42.9989 160.7205 0001578 245.2808 250.5107 15.40706812  5120"}}, "geometry": {"type": "Point", "coordinates": [-64.97762320398036, 31.92802150398315]}}, {"type": "Feature", "properties": {"norad_id": 66616, "name": "STARLINK-35391", "group": "last-30-days", "lat": -30.783674229889726, "lon": 16.48843100258675, "alt_km": 446.0957119045206, "timestamp": "2025-12-18T21:31:49.698922+00:00", "meta": {"OBJECT_NAME": "STARLINK-35391", "OBJECT_ID": "2025-270AE", "EPOCH": "2025-12-18T06:00:02.999808", "MEAN_MOTION": 15.40665319, "ECCENTRICITY": 0.0001658, "INCLINATION": 42.9998, "RA_OF_ASC_NODE": 160.4781, "ARG_OF_PERICENTER": 275.5704, "MEAN_ANOMALY": 319.8374, "EPHEMERIS_TYPE": 0, "CLASSIFICATION_TYPE": "U", "NORAD_CAT_ID": 66616, "ELEMENT_SET_NO": 999, "REV_AT_EPOCH": 539, "BSTAR": 0.00062545807, "MEAN_MOTION_DOT": 0.00025882, "MEAN_MOTION_DDOT": 0}, "tle": {"line1": "1 66616U 25270AE  25352.25003472  .00025882  00000+0  62546-3 0  9991", "line2": "2 66616  42.9998 160.4781 0001658 275.5704 319.8374 15.40665319  5397"}}, "geometry": {"type": "Point", "coordinates": [16.48843100258675, -30.783674229889726]}}, {"type": "Feature", "properties": {"norad_id": 66617, "name": "STARLINK-35940", "group": "last-30-days", "lat": 48.05339057284256, "lon": -78.46972213383599, "alt_km": 439.75352936764284, "timestamp": "2025-12-18T21:31:49.698932+00:00", "meta": {"OBJECT_NAME": "STARLINK-35940", "OBJECT_ID": "2025-271A", "EPOCH": "2025-12-18T06:00:02.999808", "MEAN_MOTION": 15.39604775, "ECCENTRICITY": 0.00014524, "INCLINATION": 53.1584, "RA_OF_ASC_NODE": 161.1186, "ARG_OF_PERICENTER": 132.6488, "MEAN_ANOMALY": 350.4334, "EPHEMERIS_TYPE": 0, "CLASSIFICATION_TYPE": "U", "NORAD_CAT_ID": 66617, "ELEMENT_SET_NO": 999, "REV_AT_EPOCH": 512, "BSTAR": 0.0011280982, "MEAN_MOTION_DOT": 0.00044967, "MEAN_MOTION_DDOT": 0}, "tle": {"line1": "1 66617U 25271A   25352.25003472  .00044967  00000+0  11281-2 0  9997", "line2": "2 66617  53.1584 161.1186 0001452 132.6488 350.4334 15.39604775  5129"}}, "geometry": {"type": "Point", "coordinates": [-78.46972213383599, 48.05339057284256]}}, {"type": "Feature", "properties": {"norad_id": 66618, "name": "STARLINK-35970", "group": "last-30-days", "lat": -41.47519952609599, "lon": 116.17068469489494, "alt_km": 423.1731232411057, "timestamp": "2025-12-18T21:31:49.698945+00:00", "meta": {"OBJECT_NAME": "STARLINK-35970", "OBJECT_ID": "2025-271B", "EPOCH": "2025-12-18T06:17:22.301088", "MEAN_MOTION": 15.49347181, "ECCENTRICITY": 6.877e-05, "INCLINATION": 53.1593, "RA_OF_ASC_NODE": 160.7171, "ARG_OF_PERICENTER": 60.1734, "MEAN_ANOMALY": 299.9343, "EPHEMERIS_TYPE": 0, "CLASSIFICATION_TYPE": "U", "NORAD_CAT_ID": 66618, "ELEMENT_SET_NO": 999, "REV_AT_EPOCH": 506, "BSTAR": 0.00059325698, "MEAN_MOTION_DOT": 0.00032729, "MEAN_MOTION_DDOT": 0}, "tle": {"line1": "1 66618U 25271B   25352.26206367  .00032729  00000+0  59326-3 0  9993", "line2": "2 66618  53.1593 160.7171 0000687  60.1734 299.9343 15.49347181  5063"}}, "geometry": {"type": "Point", "coordinates": [116.17068469489494, -41.47519952609599]}}, {"type": "Feature", "properties": {"norad_id": 66619, "name": "STARLINK-35951", "group": "last-30-days", "lat": -51.700685922563316, "lon": 49.46405519493007, "alt_km": 423.2910987157338, "timestamp": "2025-12-18T21:31:49.698958+00:00", "meta": {"OBJECT_NAME": "STARLINK-35951", "OBJECT_ID": "2025-271C", "EPOCH": "2025-12-18T04:56:14.648640", "MEAN_MOTION": 15.49345027, "ECCENTRICITY": 4.912e-05, "INCLINATION": 53.159, "RA_OF_ASC_NODE": 161.0817, "ARG_OF_PERICENTER": 65.7997, "MEAN_ANOMALY": 294.3063, "EPHEMERIS_TYPE": 0, "CLASSIFICATION_TYPE": "U", "NORAD_CAT_ID": 66619, "ELEMENT_SET_NO": 999, "REV_AT_EPOCH": 505, "BSTAR": 0.0020150292, "MEAN_MOTION_DOT": 0.00113404, "MEAN_MOTION_DDOT": 0}, "tle": {"line1": "1 66619U 25271C   25352.20572510  .00113404  00000+0  20150-2 0  9996", "line2": "2 66619  53.1590 161.0817 0000491  65.7997 294.3063 15.49345027  5051"}}, "geometry": {"type": "Point", "coordinates": [49.46405519493007, -51.700685922563316]}}]}